CTC1_L_00021016-03
1 24168U 26714NN  26037.47800926  .00000000  00000+0  00000-0 0  9994
2 24168  80.0000 180.0000 0000000   0.0000   0.0000 15.80155563    10
CTC1_L_00021016-04
1 24169U 26111KV  26037.47800926  .00000000  00000+0  00000-0 0  9996
2 24169  80.0000 180.0000 0000000   0.0000  90.0000 15.80155563    10
CTC1_L_00021017-01
1 24170U 24058VP  26037.47800926  .00000000  00000+0  00000-0 0  9996
2 24170  80.0000 192.0000 0000000   0.0000 192.0000 15.80155563    18
CTC1_L_00021017-02
1 24171U 25306ZJ  26037.47800926  .00000000  00000+0  00000-0 0  9994
2 24171  80.0000 192.0000 0000000   0.0000 282.0000 15.80155563    19
CTC1_L_00021017-03
1 24172U 24738VP  26037.47800926  .00000000  00000+0  00000-0 0  9993
2 24172  80.0000 192.0000 0000000   0.0000  12.0000 15.80155563    11
CTC1_L_00021017-04
1 24173U 25585IX  26037.47800926  .00000000  00000+0  00000-0 0  9995
2 24173  80.0000 192.0000 0000000   0.0000 102.0000 15.80155563    12
CTC1_L_00021018-01
1 24174U 26598YH  26037.47800926  .00000000  00000+0  00000-0 0  9991
2 24174  80.0000 204.0000 0000000   0.0000 204.0000 15.80155563    10
CTC1_L_00021018-02
1 24175U 22389I   26037.47800926  .00000000  00000+0  00000-0 0  9996
2 24175  80.0000 204.0000 0000000   0.0000 294.0000 15.80155563    10
CTC1_L_00021018-03
1 24176U 23475GB  26037.47800926  .00000000  00000+0  00000-0 0  9994
2 24176  80.0000 204.0000 0000000   0.0000  24.0000 15.80155563    12
CTC1_L_00021018-04
1 24177U 25285AU  26037.47800926  .00000000  00000+0  00000-0 0  9996
2 24177  80.0000 204.0000 0000000   0.0000 114.0000 15.80155563    13
CTC1_L_00021019-01
1 24178U 25096PV  26037.47800926  .00000000  00000+0  00000-0 0  9997
2 24178  80.0000 216.0000 0000000   0.0000 216.0000 15.80155563    10
CTC1_L_00021019-02
1 24179U 26485OH  26037.47800926  .00000000  00000+0  00000-0 0  9991
2 24179  80.0000 216.0000 0000000   0.0000 306.0000 15.80155563    11
CTC1_L_00021019-03
1 24180U 26505FG  26037.47800926  .00000000  00000+0  00000-0 0  9996
2 24180  80.0000 216.0000 0000000   0.0000  36.0000 15.80155563    13
CTC1_L_00021019-04
1 24181U 26137QF  26037.47800926  .00000000  00000+0  00000-0 0  9998
2 24181  80.0000 216.0000 0000000   0.0000 126.0000 15.80155563    14
CTC1_L_00021020-01
1 24182U 23285FG  26037.47800926  .00000000  00000+0  00000-0 0  9990
2 24182  80.0000 228.0000 0000000   0.0000 228.0000 15.80155563    11
CTC1_L_00021020-02
1 24183U 25886BT  26037.47800926  .00000000  00000+0  00000-0 0  9990
2 24183  80.0000 228.0000 0000000   0.0000 318.0000 15.80155563    12
CTC1_L_00021020-03
1 24184U 24346BL  26037.47800926  .00000000  00000+0  00000-0 0  9991
2 24184  80.0000 228.0000 0000000   0.0000  48.0000 15.80155563    13
CTC1_L_00021020-04
1 24185U 23245VF  26037.47800926  .00000000  00000+0  00000-0 0  9999
2 24185  80.0000 228.0000 0000000   0.0000 138.0000 15.80155563    14
CTC1_L_00021021-01
1 24186U 26402NP  26037.47800926  .00000000  00000+0  00000-0 0  9998
2 24186  80.0000 240.0000 0000000   0.0000 240.0000 15.80155563    13
CTC1_L_00021021-02
1 24187U 26553GD  26037.47800926  .00000000  00000+0  00000-0 0  9996
2 24187  80.0000 240.0000 0000000   0.0000 330.0000 15.80155563    14
CTC1_L_00021021-03
1 24188U 26832WU  26037.47800926  .00000000  00000+0  00000-0 0  9997
2 24188  80.0000 240.0000 0000000   0.0000  60.0000 15.80155563    15
CTC1_L_00021021-04
1 24189U 25914LH  26037.47800926  .00000000  00000+0  00000-0 0  9998
2 24189  80.0000 240.0000 0000000   0.0000 150.0000 15.80155563    16
CTC1_L_00021022-01
1 24190U 26661TG  26037.47800926  .00000000  00000+0  00000-0 0  9990
2 24190  80.0000 252.0000 0000000   0.0000 252.0000 15.80155563    14
CTC1_L_00021022-02
1 24191U 26779TZ  26037.47800926  .00000000  00000+0  00000-0 0  9991
2 24191  80.0000 252.0000 0000000   0.0000 342.0000 15.80155563    15
CTC1_L_00021022-03
1 24192U 23753BR  26037.47800926  .00000000  00000+0  00000-0 0  9991
2 24192  80.0000 252.0000 0000000   0.0000  72.0000 15.80155563    16
CTC1_L_00021022-04
1 24193U 25484MJ  26037.47800926  .00000000  00000+0  00000-0 0  9995
2 24193  80.0000 252.0000 0000000   0.0000 162.0000 15.80155563    17
CTC1_L_00021023-01
1 24194U 23414GN  26037.47800926  .00000000  00000+0  00000-0 0  9997
2 24194  80.0000 264.0000 0000000   0.0000 264.0000 15.80155563    14
CTC1_L_00021023-02
1 24195U 24614GU  26037.47800926  .00000000  00000+0  00000-0 0  9991
2 24195  80.0000 264.0000 0000000   0.0000 354.0000 15.80155563    15
CTC1_L_00021023-03
1 24196U 24525JO  26037.47800926  .00000000  00000+0  00000-0 0  9993
2 24196  80.0000 264.0000 0000000   0.0000  84.0000 15.80155563    16
CTC1_L_00021023-04
1 24197U 25725TP  26037.47800926  .00000000  00000+0  00000-0 0  9997
2 24197  80.0000 264.0000 0000000   0.0000 174.0000 15.80155563    17
CTC1_L_00021024-01
1 24198U 24633TX  26037.47800926  .00000000  00000+0  00000-0 0  9995
2 24198  80.0000 276.0000 0000000   0.0000 276.0000 15.80155563    14
CTC1_L_00021024-02
1 24199U 25161EJ  26037.47800926  .00000000  00000+0  00000-0 0  9993
2 24199  80.0000 276.0000 0000000   0.0000   6.0000 15.80155563    16
CTC1_L_00021024-03
1 24200U 24176EV  26037.47800926  .00000000  00000+0  00000-0 0  9991
2 24200  80.0000 276.0000 0000000   0.0000  96.0000 15.80155563    18
CTC1_L_00021024-04
1 24201U 22332FM  26037.47800926  .00000000  00000+0  00000-0 0  9994
2 24201  80.0000 276.0000 0000000   0.0000 186.0000 15.80155563    19
CTC1_L_00021025-01
1 24202U 26112KK  26037.47800926  .00000000  00000+0  00000-0 0  9995
2 24202  80.0000 288.0000 0000000   0.0000 288.0000 15.80155563    16
CTC1_L_00021025-02
1 24203U 22691UP  26037.47800926  .00000000  00000+0  00000-0 0  9994
2 24203  80.0000 288.0000 0000000   0.0000  18.0000 15.80155563    18
CTC1_L_00021025-03
1 24204U 26993CO  26037.47800926  .00000000  00000+0  00000-0 0  9994
2 24204  80.0000 288.0000 0000000   0.0000 108.0000 15.80155563    19
CTC1_L_00021025-04
1 24205U 26624YJ  26037.47800926  .00000000  00000+0  00000-0 0  9996
2 24205  80.0000 288.0000 0000000   0.0000 198.0000 15.80155563    19
CTC1_L_00021026-01
1 24206U 22727UF  26037.47800926  .00000000  00000+0  00000-0 0  9997
2 24206  80.0000 300.0000 0000000   0.0000 300.0000 15.80155563    10
CTC1_L_00021026-02
1 24207U 26062FC  26037.47800926  .00000000  00000+0  00000-0 0  9994
2 24207  80.0000 300.0000 0000000   0.0000  30.0000 15.80155563    11
CTC1_L_00021026-03
1 24208U 26918UA  26037.47800926  .00000000  00000+0  00000-0 0  9995
2 24208  80.0000 300.0000 0000000   0.0000 120.0000 15.80155563    12
CTC1_L_00021026-04
1 24209U 26228ND  26037.47800926  .00000000  00000+0  00000-0 0  9990
2 24209  80.0000 300.0000 0000000   0.0000 210.0000 15.80155563    13
CTC1_L_00021027-01
1 24210U 24393FP  26037.47800926  .00000000  00000+0  00000-0 0  9993
2 24210  80.0000 312.0000 0000000   0.0000 312.0000 15.80155563    11
CTC1_L_00021027-02
1 24211U 24927OC  26037.47800926  .00000000  00000+0  00000-0 0  9997
2 24211  80.0000 312.0000 0000000   0.0000  42.0000 15.80155563    12
CTC1_L_00021027-03
1 24212U 26374GD  26037.47800926  .00000000  00000+0  00000-0 0  9996
2 24212  80.0000 312.0000 0000000   0.0000 132.0000 15.80155563    13
CTC1_L_00021027-04
1 24213U 23867HO  26037.47800926  .00000000  00000+0  00000-0 0  9991
2 24213  80.0000 312.0000 0000000   0.0000 222.0000 15.80155563    14
CTC1_L_00021028-01
1 24214U 22521IJ  26037.47800926  .00000000  00000+0  00000-0 0  9998
2 24214  80.0000 324.0000 0000000   0.0000 324.0000 15.80155563    11
CTC1_L_00021028-02
1 24215U 24634DD  26037.47800926  .00000000  00000+0  00000-0 0  9996
2 24215  80.0000 324.0000 0000000   0.0000  54.0000 15.80155563    12
CTC1_L_00021028-03
1 24216U 25098EC  26037.47800926  .00000000  00000+0  00000-0 0  9992
2 24216  80.0000 324.0000 0000000   0.0000 144.0000 15.80155563    13
CTC1_L_00021028-04
1 24217U 23040WB  26037.47800926  .00000000  00000+0  00000-0 0  9998
2 24217  80.0000 324.0000 0000000   0.0000 234.0000 15.80155563    14
CTC1_L_00021029-01
1 24218U 23930XD  26037.47800926  .00000000  00000+0  00000-0 0  9997
2 24218  80.0000 336.0000 0000000   0.0000 336.0000 15.80155563    11
CTC1_L_00021029-02
1 24219U 25680XA  26037.47800926  .00000000  00000+0  00000-0 0  9992
2 24219  80.0000 336.0000 0000000   0.0000  66.0000 15.80155563    12
CTC1_L_00021029-03
1 24220U 26525OX  26037.47800926  .00000000  00000+0  00000-0 0  9993
2 24220  80.0000 336.0000 0000000   0.0000 156.0000 15.80155563    14
CTC1_L_00021029-04
1 24221U 26472HC  26037.47800926  .00000000  00000+0  00000-0 0  9995
2 24221  80.0000 336.0000 0000000   0.0000 246.0000 15.80155563    15
CTC1_L_00021030-01
1 24222U 23795VU  26037.47800926  .00000000  00000+0  00000-0 0  9991
2 24222  80.0000 348.0000 0000000   0.0000 348.0000 15.80155563    12
CTC1_L_00021030-02
1 24223U 22605TK  26037.47800926  .00000000  00000+0  00000-0 0  9991
2 24223  80.0000 348.0000 0000000   0.0000  78.0000 15.80155563    13
CTC1_L_00021030-03
1 24224U 25913IK  26037.47800926  .00000000  00000+0  00000-0 0  9997
2 24224  80.0000 348.0000 0000000   0.0000 168.0000 15.80155563    14
CTC1_L_00021030-04
1 24225U 26527MR  26037.47800926  .00000000  00000+0  00000-0 0  9990
2 24225  80.0000 348.0000 0000000   0.0000 258.0000 15.80155563    15
